EUTELSAT 21B            
1 38992U 12062B   25296.84697615  .00000142  00000+0  00000+0 0  9997
2 38992   0.0718 356.8019 0003022 233.5697 128.7281  1.00275981 47455
EUTELSAT 70B            
1 39020U 12069A   25296.93233319 -.00000032  00000+0  00000+0 0  9993
2 39020   0.0669   6.2668 0004331 206.7936 225.6850  1.00271627 47149
EUTELSAT 117 WEST A     
1 39122U 13012A   25296.88225887 -.00000001  00000+0  00000+0 0  9996
2 39122   0.0030 341.3019 0002615 230.3687  21.7003  1.00272561 46069
EUTELSAT 7B             
1 39163U 13022A   25296.88358264  .00000060  00000+0  00000+0 0  9992
2 39163   0.0733  13.5478 0001853 299.0918  45.0158  1.00270884 45585
EXPRESS-AT1             
1 39612U 14010A   25296.92524831  .00000090  00000+0  00000+0 0  9992
2 39612   0.0153 249.0757 0000499 227.9990 304.6178  1.00271381 42442
EXPRESS-AT2             
1 39613U 14010B   25296.86173427 -.00000269  00000+0  00000+0 0  9996
2 39613   0.0184 247.0980 0000264 205.7661  29.7660  1.00272407 42139
EUTELSAT 3B             
1 39773U 14030A   25296.89747531  .00000032  00000+0  00000+0 0  9998
2 39773   0.0685   9.8119 0004370 192.7039 156.2494  1.00272309 41698
EUTELSAT 115 WEST B     
1 40425U 15010B   25296.88251887 -.00000014  00000+0  00000+0 0  9997
2 40425   0.0152  89.1628 0000259 195.4774 310.7430  1.00273746 39024
